[{"OBJECT_NAME":"STARLINK-35967","OBJECT_ID":"2025-271T","EPOCH":"2026-03-09T11:04:56.126208","MEAN_MOTION":15.30208137,"ECCENTRICITY":0.00017515,"INCLINATION":53.1603,"RA_OF_ASC_NODE":140.8628,"ARG_OF_PERICENTER":88.7111,"MEAN_ANOMALY":271.4091,"EPHEMERIS_TYPE":0,"CLASSIFICATION_TYPE":"U","NORAD_CAT_ID":66634,"ELEMENT_SET_NO":999,"REV_AT_EPOCH":1749,"BSTAR":0.00091301825,"MEAN_MOTION_DOT":0.00026786,"MEAN_MOTION_DDOT":0},{"OBJECT_NAME":"KUIPER-00208","OBJECT_ID":"2026-030M","EPOCH":"2026-03-09T16:08:08.024640","MEAN_MOTION":15.32208734,"ECCENTRICITY":0.00155248,"INCLINATION":51.8846,"RA_OF_ASC_NODE":219.6993,"ARG_OF_PERICENTER":57.3146,"MEAN_ANOMALY":302.9333,"EPHEMERIS_TYPE":0,"CLASSIFICATION_TYPE":"U","NORAD_CAT_ID":67775,"ELEMENT_SET_NO":999,"REV_AT_EPOCH":508,"BSTAR":0.0013882708,"MEAN_MOTION_DOT":0.00043852,"MEAN_MOTION_DDOT":0}]
