STARLINK-35967          
1 66634U 25271T   26068.46176072  .00026786  00000+0  91302-3 0  9993
2 66634  53.1603 140.8628 0001751  88.7111 271.4091 15.30208137 17499
KUIPER-00208            
1 67775U 26030M   26068.67231509  .00043852  00000+0  13883-2 0  9994
2 67775  51.8846 219.6993 0015525  57.3146 302.9333 15.32208734  5080
